TIANMU-1 08             
1 57400U 23101B   26066.00237819  .00000346  00000+0  14775-4 0  9993
2 57400  97.2717 118.7901 0006380 134.2174 225.9592 15.29204229146020
STARLINK-35987          
1 66860U 25281N   26068.14110278  .00036526  00000+0  13311-2 0  9992
2 66860  43.0030 346.3973 0001766 282.2881  77.7773 15.27558690 16108
